OBJECT_NAME,OBJECT_ID,EPOCH,MEAN_MOTION,ECCENTRICITY,INCLINATION,RA_OF_ASC_NODE,ARG_OF_PERICENTER,MEAN_ANOMALY,EPHEMERIS_TYPE,CLASSIFICATION_TYPE,NORAD_CAT_ID,ELEMENT_SET_NO,REV_AT_EPOCH,BSTAR,MEAN_MOTION_DOT,MEAN_MOTION_DDOT
PERSEUS-M1,2014-033AF,2026-06-26T19:17:32.851680,14.95664314,.00098113,97.9648,122.0936,265.1759,94.8341,0,U,40039,999,65207,.18133445E-3,.1957E-4,0
POLYITAN-1,2014-033AJ,2026-06-26T23:18:27.831744,15.33592281,.00088673,98.0938,205.1586,115.0294,245.1868,0,U,40042,999,65509,.62226855E-3,.20174E-3,0
TIGRISAT,2014-033AK,2026-06-26T16:23:18.157920,14.85194115,.00501241,97.7842,327.4774,44.7680,315.7563,0,U,40043,999,64703,.20384889E-3,.1731E-4,0
AEROCUBE 6A,2014-033AM,2026-06-26T21:48:17.754912,14.98187339,.00381702,97.7228,344.7555,344.2075,15.7954,0,U,40045,999,64807,.41607669E-3,.495E-4,0
AEROCUBE 6B,2014-033AN,2026-06-26T16:49:46.462944,14.99648140,.00377402,97.7227,344.3618,336.0186,23.9278,0,U,40046,999,64818,.37409477E-3,.4617E-4,0
CANX-4,2014-034C,2026-06-26T21:05:55.879872,14.81280989,.00124196,98.3111,53.5474,346.2589,13.8283,0,U,40055,999,64596,.1230152E-3,.903E-5,0
CANX-5,2014-034D,2026-06-26T14:34:25.834080,14.81297429,.0012441,98.3114,53.3098,347.3875,12.7023,0,U,40056,999,63673,.11591E-3,.848E-5,0
UKUBE-1,2014-037F,2026-06-26T22:51:09.387072,15.13699275,.0003059,98.4236,182.2506,116.7089,243.4453,0,U,40074,999,65003,.50852337E-3,.9082E-4,0
BRITE-PL2 (HEWELIUSZ),2014-049B,2026-06-26T21:07:00.827616,14.94629153,.001536,97.9107,289.9549,78.9285,281.3661,0,U,40119,999,64289,.16647088E-3,.1747E-4,0
AEROCUBE 5C,2015-058B,2026-06-26T11:47:08.263104,14.91488513,.0131217,64.7664,233.6456,59.6399,301.7611,0,U,40965,999,36704,.19034E-3,.2073E-4,0
AEROCUBE 7,2015-058C,2026-06-26T12:39:49.262400,14.95774878,.012094,64.7607,215.5583,57.9886,303.2911,0,U,40966,999,36735,.2611E-3,.32E-4,0
FOX-1A (AO-85),2015-058D,2026-06-26T19:26:21.337152,14.91008064,.01310245,64.7748,249.0783,52.8500,308.4494,0,U,40967,999,11500,.20610904E-3,.2228E-4,0
SINOD-D 1,2015-058E,2026-06-26T10:30:11.270880,14.95955298,.0119663,64.7739,229.9429,49.4285,311.7170,0,U,40968,999,11804,.26324E-3,.3234E-4,0
SNAP-3 ALICE,2015-058G,2026-06-26T23:23:23.453664,15.62556243,.00247725,64.7505,70.0444,5.5562,354.5855,0,U,40970,999,11841,.17058012E-2,.15824E-2,0
LMRST-SAT,2015-058H,2026-06-26T21:38:45.378240,14.90625518,.01326286,64.7743,245.1493,54.8471,306.4983,0,U,40971,999,11500,.17638656E-3,.1868E-4,0
SNAP-3 EDDIE,2015-058J,2026-06-26T22:57:45.417024,15.63731431,.00253051,64.7423,60.7571,9.3086,350.8525,0,U,40972,999,12055,.14630893E-2,.141927E-2,0
PROPCUBE 3,2015-058K,2026-06-26T12:17:23.652384,14.94300275,.0124548,64.7672,223.4003,56.2341,305.0563,0,U,40973,999,11619,.23025E-3,.2709E-4,0
BISONSAT,2015-058L,2026-06-26T22:13:56.728128,15.16431805,.00802032,64.7571,142.1508,43.3397,317.3997,0,U,40974,999,11709,.75359326E-3,.15811E-3,0
SNAP-3 JIMI,2015-058M,2026-06-26T09:00:42.662592,15.02378366,.0106633,64.7632,190.6990,51.6805,309.3839,0,U,40975,999,11560,.42149E-3,.6148E-4,0
PROPCUBE 1 (FLORA),2015-058N,2026-06-26T15:56:36.031488,14.89258404,.01312682,64.7749,265.8631,57.2315,304.1365,0,U,40976,999,11767,.1909522E-3,.1953E-4,0
SINOD-D 3,2015-058P,2026-06-26T11:28:46.691616,14.94063839,.0119787,64.7720,246.8052,54.4457,306.7753,0,U,40977,999,11614,.24358E-3,.2825E-4,0
HORYU-4,2016-012D,2026-06-26T20:23:26.833632,16.08207360,.00088162,30.9825,7.5384,329.4490,30.5661,0,U,41340,999,57236,.12212368E-2,.1084955E-1,.65487385E-3
RAVAN,2016-067B,2026-06-26T22:52:15.723264,15.55621120,.00026613,97.9878,68.6594,357.9218,2.2023,0,U,41849,999,52921,.81760796E-3,.56284E-3,0
CELTEE 1,2016-067C,2026-06-26T21:15:50.310144,15.19772348,.00014791,98.0666,45.1147,128.8503,231.2862,0,U,41850,999,52735,.26530071E-3,.56E-4,0
OPTICUBE 04,2016-067D,2026-06-26T11:47:05.590752,15.09695294,.0017023,98.0694,30.2600,86.7343,273.5832,0,U,41851,999,52657,.13858E-3,.2168E-4,0
AEROCUBE 8D,2016-067E,2026-06-26T03:33:15.782976,15.24514880,.00050223,98.0682,48.0013,102.1384,258.0415,0,U,41852,999,52743,.34050891E-3,.8298E-4,0
AEROCUBE 8C,2016-067F,2026-06-26T21:26:37.504896,15.24778663,.00060509,98.0548,46.0183,42.3441,317.8261,0,U,41853,999,52754,.32979081E-3,.8099E-4,0
CORVUS BC2,2017-042X,2026-06-26T23:02:12.828480,15.06354829,.00146811,97.4070,338.9304,80.4438,279.8448,0,U,42846,999,48853,.20501732E-3,.2964E-4,0
CORVUS BC1,2017-042Y,2026-06-26T16:30:18.945792,15.06515349,.0013119,97.4096,339.4890,60.2631,299.9900,0,U,42847,999,48852,.19183315E-3,.278E-4,0
MAKERSAT 0,2017-073D,2026-06-26T21:51:13.795776,15.32402666,.01047967,97.4620,60.5069,237.7644,121.3407,0,U,43016,999,46795,.47543214E-3,.17641E-3,0
